NORAD_CAT_ID,OBJECT_NAME,OBJECT_TYPE,EPOCH,MEAN_MOTION,ECCENTRICITY,INCLINATION,RA_OF_ASC_NODE,ARG_OF_PERICENTER,MEAN_ANOMALY,BSTAR,MEAN_MOTION_DOT,MEAN_MOTION_DDOT,TLE_LINE0,TLE_LINE1,TLE_LINE2,SEMIMAJOR_AXIS,PERIOD,APOGEE,PERIGEE,DECAYED
49729.0,STARLINK-3251,PAYLOAD,2023-05-06 10:59:06,15.08842534,0.0001389,53.2158,139.9346,80.9821,279.1328,3.7769e-05,3.13e-06,0.0,0 STARLINK-3251,1 49729U 21115F   23126.45771931  .00000313  00000-0  37769-4 0  9995,2 49729  53.2158 139.9346 0001389  80.9821 279.1328 15.08842534 78659,6917.873,95.437,540.699,538.777,0.0
49729.0,STARLINK-3251,PAYLOAD,2023-05-07 07:39:07,15.08843805,0.0001318,53.2159,136.0686,84.6606,275.4536,9.6066e-05,1.241e-05,0.0,0 STARLINK-3251,1 49729U 21115F   23127.31883624  .00001241  00000-0  96066-4 0  9990,2 49729  53.2159 136.0686 0001318  84.6606 275.4536 15.08843805 79898,6917.869,95.437,540.646,538.822,0.0
49729.0,STARLINK-3251,PAYLOAD,2023-05-07 17:11:26,15.08837749,0.0001342,53.2161,134.2843,82.1378,277.9767,4.707e-05,4.61e-06,0.0,0 STARLINK-3251,1 49729U 21115F   23127.71628164  .00000461  00000-0  47070-4 0  9994,2 49729  53.2161 134.2843 0001342  82.1378 277.9767 15.08837749 79952,6917.887,95.438,540.681,538.824,0.0
49729.0,STARLINK-3251,PAYLOAD,2023-05-08 04:19:09,15.08831545,0.0001345,53.2158,132.2023,88.1525,271.9622,7.2799e-06,-1.72e-06,0.0,0 STARLINK-3251,1 49729U 21115F   23128.17996805 -.00000172  00000-0  72799-5 0  9992,2 49729  53.2158 132.2023 0001345  88.1525 271.9622 15.08831545 80021,6917.906,95.438,540.702,538.841,0.0
49729.0,STARLINK-3251,PAYLOAD,2023-05-08 17:02:14,15.08835234,0.0001281,53.2155,129.8243,85.6642,274.4497,2.5267e-05,1.14e-06,0.0,0 STARLINK-3251,1 49729U 21115F   23128.70988692  .00000114  00000-0  25267-4 0  9998,2 49729  53.2155 129.8243 0001281  85.6642 274.4497 15.08835234 78995,6917.895,95.438,540.646,538.874,0.0
49729.0,STARLINK-3251,PAYLOAD,2023-05-09 07:20:41,15.08843086,0.000126,53.2157,127.1484,90.257,269.8567,4.6276e-05,4.49e-06,0.0,0 STARLINK-3251,1 49729U 21115F   23129.30604164  .00000449  00000-0  46276-4 0  9998,2 49729  53.2157 127.1484 0001260  90.2570 269.8567 15.08843086 79085,6917.871,95.437,540.608,538.864,0.0
49729.0,STARLINK-3251,PAYLOAD,2023-05-10 07:11:29,15.08840278,0.000117,53.2158,122.6872,90.6661,269.4465,0.0001221,1.656e-05,0.0,0 STARLINK-3251,1 49729U 21115F   23130.29964357  .00001656  00000-0  12210-3 0  9992,2 49729  53.2158 122.6872 0001170  90.6661 269.4465 15.08840278 79232,6917.88,95.438,540.554,538.935,0.0
49729.0,STARLINK-3251,PAYLOAD,2023-05-10 16:43:48,15.08837643,0.000115,53.2156,120.9027,89.885,270.2274,7.9671e-05,9.8e-06,0.0,0 STARLINK-3251,1 49729U 21115F   23130.69708688  .00000980  00000-0  79671-4 0  9993,2 49729  53.2156 120.9027 0001150  89.8850 270.2274 15.08837643 79297,6917.888,95.438,540.548,538.957,0.0
49729.0,STARLINK-3251,PAYLOAD,2023-05-11 05:26:53,15.08839145,0.0001234,53.216,118.5239,88.8089,271.3045,2.8598e-05,1.67e-06,0.0,0 STARLINK-3251,1 49729U 21115F   23131.22700814  .00000167  00000-0  28598-4 0  9995,2 49729  53.2160 118.5239 0001234  88.8089 271.3045 15.08839145 80486,6917.883,95.438,540.602,538.894,0.0
49729.0,STARLINK-3251,PAYLOAD,2023-05-11 16:34:35,15.08841863,0.000119,53.2159,116.4425,89.5064,270.6065,5.1896e-05,5.38e-06,0.0,0 STARLINK-3251,1 49729U 21115F   23131.69068518  .00000538  00000-0  51896-4 0  9993,2 49729  53.2159 116.4425 0001190  89.5064 270.6065 15.08841863 79448,6917.875,95.437,540.563,538.916,0.0
49729.0,STARLINK-3251,PAYLOAD,2023-05-12 05:17:40,15.08840208,0.0001193,53.2159,114.0635,89.6167,270.4962,5.3619e-05,5.66e-06,0.0,0 STARLINK-3251,1 49729U 21115F   23132.22060622  .00000566  00000-0  53619-4 0  9997,2 49729  53.2159 114.0635 0001193  89.6167 270.4962 15.08840208 79528,6917.88,95.438,540.57,538.919,0.0
49729.0,STARLINK-3251,PAYLOAD,2023-05-12 22:46:54,15.08841818,0.000124,53.216,110.7907,96.1109,264.0024,7.6328e-05,9.27e-06,0.0,0 STARLINK-3251,1 49729U 21115F   23132.94924407  .00000927  00000-0  76328-4 0  9999,2 49729  53.2160 110.7907 0001240  96.1109 264.0024 15.08841818 80749,6917.875,95.437,540.598,538.882,0.0
49729.0,STARLINK-3251,PAYLOAD,2023-05-13 05:08:26,15.08845247,0.0001232,53.2161,109.6014,97.7327,262.3805,9.9355e-05,1.294e-05,0.0,0 STARLINK-3251,1 49729U 21115F   23133.21420092  .00001294  00000-0  99355-4 0  9994,2 49729  53.2161 109.6014 0001232  97.7327 262.3805 15.08845247 79674,6917.864,95.437,540.582,538.877,0.0
49729.0,STARLINK-3251,PAYLOAD,2023-05-14 04:59:14,15.08835628,0.0001088,53.2172,105.1429,94.7795,265.3321,1.4661e-05,-5.4e-07,0.0,0 STARLINK-3251,1 49729U 21115F   23134.20781049 -.00000054  00000-0  14661-4 0  9997,2 49729  53.2172 105.1429 0001088  94.7795 265.3321 15.08835628 80931,6917.894,95.438,540.511,539.006,0.0
49729.0,STARLINK-3251,PAYLOAD,2023-05-14 20:53:06,15.0883982,0.0001054,53.2165,102.1684,99.9881,260.123,-7.3259e-05,-1.453e-05,0.0,0 STARLINK-3251,1 49729U 21115F   23134.87021227 -.00001453  00000-0 -73259-4 0  9998,2 49729  53.2165 102.1684 0001054  99.9881 260.1230 15.08839820 79926,6917.881,95.438,540.475,539.017,0.0
49729.0,STARLINK-3251,PAYLOAD,2023-05-15 04:50:01,15.08839183,0.0001059,53.217,100.6826,94.2019,265.9094,7.1683e-06,-1.74e-06,0.0,0 STARLINK-3251,1 49729U 21115F   23135.20141016 -.00000174  00000-0  71683-5 0  9993,2 49729  53.2170 100.6826 0001059  94.2019 265.9094 15.08839183 79977,6917.883,95.438,540.48,539.015,0.0
49729.0,STARLINK-3251,PAYLOAD,2023-05-15 14:22:20,15.08834011,0.0001029,53.2166,98.8978,88.8544,271.2566,4.1199e-05,3.68e-06,0.0,0 STARLINK-3251,1 49729U 21115F   23135.59885319  .00000368  00000-0  41199-4 0  9998,2 49729  53.2166  98.8978 0001029  88.8544 271.2566 15.08834011 81148,6917.899,95.438,540.476,539.052,0.0
49729.0,STARLINK-3251,PAYLOAD,2023-05-16 06:16:12,15.08839118,0.0001062,53.2168,95.9247,93.843,266.2684,9.7727e-05,1.268e-05,0.0,0 STARLINK-3251,1 49729U 21115F   23136.26125066  .00001268  00000-0  97727-4 0  9997,2 49729  53.2168  95.9247 0001062  93.8430 266.2684 15.08839118 80130,6917.883,95.438,540.483,539.013,0.0
49729.0,STARLINK-3251,PAYLOAD,2023-05-17 01:20:50,15.08834223,0.0001093,53.2174,92.3563,91.9806,268.1311,1.7019e-05,-1.7e-07,0.0,0 STARLINK-3251,1 49729U 21115F   23137.05613833 -.00000017  00000-0  17019-4 0  9997,2 49729  53.2174  92.3563 0001093  91.9806 268.1311 15.08834223 81365,6917.898,95.438,540.519,539.007,0.0
49729.0,STARLINK-3251,PAYLOAD,2023-05-17 06:06:59,15.08838204,0.0001109,53.2172,91.464,89.6286,270.4833,4.6515e-05,4.53e-06,0.0,0 STARLINK-3251,1 49729U 21115F   23137.25485524  .00000453  00000-0  46515-4 0  9999,2 49729  53.2172  91.4640 0001109  89.6286 270.4833 15.08838204 80281,6917.886,95.438,540.518,538.984,0.0
49729.0,STARLINK-3251,PAYLOAD,2023-05-18 02:47:00,15.08836692,0.0001213,53.2174,87.5975,91.9245,268.1886,3.3223e-05,2.41e-06,0.0,0 STARLINK-3251,1 49729U 21115F   23138.11597826  .00000241  00000-0  33223-4 0  9991,2 49729  53.2174  87.5975 0001213  91.9245 268.1886 15.08836692 81526,6917.891,95.438,540.595,538.916,0.0
49729.0,STARLINK-3251,PAYLOAD,2023-05-18 05:57:46,15.08840114,0.0001199,53.2175,87.0023,90.1617,269.9512,2.2433e-05,6.9e-07,0.0,0 STARLINK-3251,1 49729U 21115F   23138.24845634  .00000069  00000-0  22433-4 0  9997,2 49729  53.2175  87.0023 0001199  90.1617 269.9512 15.08840114 80431,6917.88,95.438,540.574,538.916,0.0
49729.0,STARLINK-3251,PAYLOAD,2023-05-19 02:37:46,15.08844105,0.0001175,53.2172,83.1362,93.9716,266.141,7.046e-05,8.34e-06,0.0,0 STARLINK-3251,1 49729U 21115F   23139.10957152  .00000834  00000-0  70460-4 0  9995,2 49729  53.2172  83.1362 0001175  93.9716 266.1410 15.08844105 81673,6917.868,95.437,540.546,538.92,0.0
49729.0,STARLINK-3251,PAYLOAD,2023-05-20 05:39:20,15.08841529,0.0001138,53.2173,78.0799,101.2792,258.8328,9.9734e-05,1.3e-05,0.0,0 STARLINK-3251,1 49729U 21115F   23140.23565101  .00001300  00000-0  99734-4 0  9994,2 49729  53.2173  78.0799 0001138 101.2792 258.8328 15.08841529 81849,6917.876,95.437,540.528,538.953,0.0
49729.0,STARLINK-3251,PAYLOAD,2023-05-21 02:19:20,15.08832498,0.0001181,53.217,74.2134,110.886,249.2259,0.00041968,6.396e-05,0.0,0 STARLINK-3251,1 49729U 21115F   23141.09675969  .00006396  00000-0  41968-3 0  9998,2 49729  53.2170  74.2134 0001181 110.8860 249.2259 15.08832498 80860,6917.903,95.438,540.585,538.951,0.0
49729.0,STARLINK-3251,PAYLOAD,2023-05-21 19:48:36,15.08830421,7.07e-05,53.217,70.944,85.5973,274.51,-0.00010709,-1.991e-05,0.0,0 STARLINK-3251,1 49729U 21115F   23141.82542298 -.00001991  00000-0 -10709-3 0  9994,2 49729  53.2170  70.9440 0000707  85.5973 274.5100 15.08830421 80971,6917.91,95.438,540.264,539.286,0.0
49729.0,STARLINK-3251,PAYLOAD,2023-05-22 02:10:09,15.08824422,8.27e-05,53.2166,69.7565,85.3173,274.7914,-0.00015956,-2.825e-05,0.0,0 STARLINK-3251,1 49729U 21115F   23142.09039099 -.00002825  00000-0 -15956-3 0  9990,2 49729  53.2166  69.7565 0000827  85.3173 274.7914 15.08824422 82121,6917.928,95.439,540.365,539.221,0.0
49729.0,STARLINK-3251,PAYLOAD,2023-05-22 11:42:28,15.08829488,9.52e-05,53.2179,67.9735,89.2343,270.8759,-0.00012044,-2.203e-05,0.0,0 STARLINK-3251,1 49729U 21115F   23142.48783009 -.00002203  00000-0 -12044-3 0  9995,2 49729  53.2179  67.9735 0000952  89.2343 270.8759 15.08829488 81079,6917.913,95.438,540.436,539.119,0.0
49729.0,STARLINK-3251,PAYLOAD,2023-05-22 19:39:23,15.08839704,7.63e-05,53.2167,66.4854,88.9331,271.1749,-0.00010929,-2.027e-05,0.0,0 STARLINK-3251,1 49729U 21115F   23142.81902565 -.00002027  00000-0 -10929-3 0  9996,2 49729  53.2167  66.4854 0000763  88.9331 271.1749 15.08839704 82239,6917.881,95.438,540.274,539.218,0.0
49729.0,STARLINK-3251,PAYLOAD,2023-05-23 00:25:32,15.0884495,8.61e-05,53.2169,65.5939,89.9214,270.1877,-4.7445e-05,-1.043e-05,0.0,0 STARLINK-3251,1 49729U 21115F   23143.01774071 -.00001043  00000-0 -47445-4 0  9999,2 49729  53.2169  65.5939 0000861  89.9214 270.1877 15.08844950 82268,6917.865,95.437,540.326,539.135,0.0
